GECAM-B                 
1 47235U 20094B   26058.19405615  .00003224  00000+0  23073-3 0  9996
2 47235  28.9982  10.8844 0010635 257.2071 102.7339 15.01652363285175
STARLINK-34948          
1 65191U 25175T   26068.63009818  .00003309  00000+0  23346-3 0  9994
2 65191  97.6018 302.6288 0003000  82.1533 278.0034 15.05646323 32632
